Please use: https://asrtu.mqsi.xyz/latest.txt

ASRTU-1
1 99130U 20499A   24340.52702546 -.00177143  00000-0 -73756-2 0 00008
2 99130 097.3779 204.8410 0018571 130.8028 286.0454 15.23674837000015

// ASRTU-1_20241205B
